GLOBALSTAR M084         
1 38040U 11080A   26027.57937016 -.00000098  00000+0  30343-4 0  9994
2 38040  52.0009  85.3436 0000833 134.6291  22.9973 12.62267470651003
GLOBALSTAR M080         
1 38041U 11080B   26027.63175147 -.00000098  00000+0  30658-4 0  9990
2 38041  52.0061  86.8542 0000182  78.1573  87.2681 12.62265726651134
GLOBALSTAR M082         
1 38042U 11080C   26027.06359744 -.00000094  00000+0  51895-4 0  9997
2 38042  52.0086  44.0687 0000207  39.2962 352.8957 12.62267028651770
GLOBALSTAR M092         
1 38043U 11080D   26027.44286028 -.00000090  00000+0  75461-4 0  9995
2 38043  52.0082 133.3032 0000844 112.2562 324.2047 12.62269808650273
GLOBALSTAR M090         
1 38044U 11080E   26027.34358707 -.00000091  00000+0  70106-4 0  9991
2 38044  52.0136  37.1274 0000409  83.9562  19.9145 12.62266281651926
GLOBALSTAR M086         
1 38045U 11080F   26027.34744140 -.00000105  00000+0 -41922-5 0  9994
2 38045  51.9908  37.2747 0001470  97.4606 276.4220 12.62282088651877
GLOBALSTAR M097         
1 39072U 13005A   26026.81875316 -.00000093  00000+0  61576-4 0  9996
2 39072  52.0067 313.6745 0000791  62.6490 297.4457 12.62268360599058
GLOBALSTAR M093         
1 39073U 13005B   26027.50520887 -.00000081  00000+0  12944-3 0  9995
2 39073  52.0124 304.8799 0001038  55.2703 304.8261 12.62272193599093
